[{"OBJECT_NAME":"ENMAP","OBJECT_ID":"2022-033C","EPOCH":"2026-03-09T22:00:43.226208","MEAN_MOTION":14.74967625,"ECCENTRICITY":0.00010636,"INCLINATION":97.9792,"RA_OF_ASC_NODE":152.5765,"ARG_OF_PERICENTER":93.4267,"MEAN_ANOMALY":266.7063,"EPHEMERIS_TYPE":0,"CLASSIFICATION_TYPE":"U","NORAD_CAT_ID":52159,"ELEMENT_SET_NO":999,"REV_AT_EPOCH":21202,"BSTAR":5.7736752e-5,"MEAN_MOTION_DOT":3.38e-6,"MEAN_MOTION_DDOT":0},{"OBJECT_NAME":"YZ-1S DEB","OBJECT_ID":"2021-099C","EPOCH":"2026-03-09T21:55:45.414912","MEAN_MOTION":14.74172291,"ECCENTRICITY":0.00058071,"INCLINATION":98.2627,"RA_OF_ASC_NODE":212.3461,"ARG_OF_PERICENTER":311.9054,"MEAN_ANOMALY":48.1658,"EPHEMERIS_TYPE":0,"CLASSIFICATION_TYPE":"U","NORAD_CAT_ID":49385,"ELEMENT_SET_NO":999,"REV_AT_EPOCH":23250,"BSTAR":0.00065707337,"MEAN_MOTION_DOT":4.285e-5,"MEAN_MOTION_DDOT":0}]
